EUTELSAT 21B            
1 38992U 12062B   25257.23169597  .00000118  00000+0  00000+0 0  9993
2 38992   0.0700   4.5709 0002751 174.0406 279.8514  1.00273530 47066
EUTELSAT 70B            
1 39020U 12069A   25257.20947608 -.00000055  00000+0  00000+0 0  9998
2 39020   0.0656   6.1164 0003903 170.5220 322.7083  1.00272148 46744
EUTELSAT 117 WEST A     
1 39122U 13012A   25257.18100480 -.00000025  00000+0  00000+0 0  9993
2 39122   0.0383 307.8365 0002935 236.6808 117.2591  1.00272571 45669
EUTELSAT 7B             
1 39163U 13022A   25257.23725402  .00000036  00000+0  00000+0 0  9993
2 39163   0.0671 349.4599 0000744  21.5838  74.8184  1.00270804 45196
EXPRESS-AT1             
1 39612U 14010A   25257.21503095  .00000068  00000+0  00000+0 0  9995
2 39612   0.0168 201.0783 0001425 315.7255 330.0605  1.00261061 42054
EXPRESS-AT2             
1 39613U 14010B   25257.25632343 -.00000293  00000+0  00000+0 0  9990
2 39613   0.0164 200.8826 0000367 250.9472 133.7792  1.00270569 41733
EUTELSAT 3B             
1 39773U 14030A   25257.24280612  .00000008  00000+0  00000+0 0  9999
2 39773   0.0651   3.7480 0004308 171.7601 268.4654  1.00272291 41300
EUTELSAT 115 WEST B     
1 40425U 15010B   25257.18100480 -.00000037  00000+0  00000+0 0  9994
2 40425   0.0312  23.0434 0000127 256.3256  24.3154  1.00272145 38628
